QIANFAN-17              
1 60395U 24140S   25317.55236986  .00000093  00000+0  12635-3 0  9997
2 60395  88.9744 302.4565 0013211 294.2295  65.7475 13.50972257 64196
QIANFAN-18              
1 60396U 24140T   25317.60584259  .00000084  00000+0  11192-3 0  9990
2 60396  88.9737 301.9866 0012326 274.3432  85.6310 13.50972261 63592
QIANFAN-19              
1 61552U 24185A   25317.64712316  .00001295  00000+0  67168-3 0  9994
2 61552  88.9806  81.2687 0008271  50.8557 309.3364 14.14251769 65559
QIANFAN-20              
1 61553U 24185B   25317.63817579  .00001379  00000+0  79136-3 0  9992
2 61553  88.9805  81.5643 0007675  83.0204 277.1853 14.08796624 65392
QIANFAN-21              
1 61554U 24185C   25317.62998885  .00002104  00000+0  93579-3 0  9996
2 61554  88.9719  80.3827 0012793  98.2412 262.0231 14.22549533 65837
QIANFAN-22              
1 61555U 24185D   25317.62942030  .00000451  00000+0  37870-3 0  9993
2 61555  88.9787  82.4297 0008457  87.8342 272.3798 13.86287628 64907
QIANFAN-23              
1 61556U 24185E   25317.59286706  .00001399  00000+0  69903-3 0  9995
2 61556  88.9798  81.0983 0009313  59.6468 300.5639 14.16251100 65623
QIANFAN-24              
1 61557U 24185F   25317.58696412  .00002083  00000+0  90527-3 0  9991
2 61557  88.9777  80.5515 0010670  44.3136 315.8909 14.23753357 65872
